LEMUR-2-ALISIA          
1 62706U 25009DB  26116.91744500  .00009708  00000+0  74593-3 0  9997
2 62706  97.6918 199.4624 0003103  42.9758 317.1709 15.01942463 92464
LEMUR-2-ROUNDTRIPPER    
1 62711U 25009DG  26116.77659221  .00011870  00000+0  88667-3 0  9992
2 62711  97.7239 199.5657 0002940 316.8959  43.2036 15.02960073 69909
LEMUR-2-MYNAMEISJEFF    
1 62712U 25009DH  26116.77505090  .00011360  00000+0  84898-3 0  9993
2 62712  97.7289 199.9139 0002123  16.1139 344.0154 15.02955729 69902
LEMUR-2-LEIA-PHILIP     
1 63246U 25052AN  26116.60967012  .00002568  00000+0  22719-3 0  9996
2 63246  97.6897   9.4200 0005146  52.2280 307.9407 14.97169158 60950
LEMUR-2-LIA-MARTIN      
1 63248U 25052AQ  26116.69273488  .00005994  00000+0  52123-3 0  9992
2 63248  97.6942   9.9120 0003525  23.5554 336.5829 14.97329649 60974
LEMUR-2-DELOITTE-1      
1 63259U 25052BB  26116.66376964  .00005191  00000+0  45333-3 0  9998
2 63259  97.6989  10.2071 0000899  60.3882 299.7430 14.97227800 60986
LEMUR-2-EMERSONROSE     
1 63261U 25052BD  26116.68974337  .00004662  00000+0  39270-3 0  9996
2 63261  97.6946  10.6878 0000815 199.8116 160.3075 14.98690347 61022
LEMUR-2-MARACHE-FRAN    
1 63262U 25052BE  26116.69622872  .00007119  00000+0  58427-3 0  9997
2 63262  97.6927  10.9387 0002851 185.9495 174.1695 14.99510242 61047
LEMUR-2-THEFALCONER     
1 63264U 25052BG  26116.68303976  .00004488  00000+0  39472-3 0  9994
2 63264  97.6915   9.9014 0002328 136.6284 223.5121 14.97022027 60981
LEMUR-2-UNTITLED-SC     
1 63351U 25061A   26116.84323378  .00003900  00000+0  22294-3 0  9999
2 63351  97.5607  92.6052 0020842  82.9474 277.4127 15.13098704 59820
LEMUR-2-ESPERANZA       
1 63352U 25061B   26116.88960602  .00004498  00000+0  25598-3 0  9994
2 63352  97.5612  92.7328 0020346  82.2369 278.1171 15.13186313 59831
LEMUR-2-KREMPEL-BRO2    
1 63353U 25061C   26116.93115774  .00004634  00000+0  26038-3 0  9995
2 63353  97.5661  93.2421 0021277  75.3173 285.0415 15.13612718 59859
LEMUR-2-THERMORAPTOR    
1 63354U 25061D   26116.84963480  .00004327  00000+0  24296-3 0  9994
2 63354  97.5667  93.2273 0021035  74.6965 285.6590 15.13680999 59849
LEMUR-2-NEUROSPICY      
1 63355U 25061E   26116.89125214  .00004927  00000+0  27549-3 0  9995
2 63355  97.5592  92.9349 0018825  77.9964 282.3376 15.13795194 59856
LEMUR-2-TILLINFINITY    
1 63356U 25061F   26116.88035133  .00005388  00000+0  29590-3 0  9995
2 63356  97.5579  93.1785 0019930  67.2209 293.1125 15.14379022 59874
LEMUR-2-KREMPEL-BRO1    
1 63357U 25061G   26116.84726733  .00004119  00000+0  22819-3 0  9993
2 63357  97.5579  93.0758 0020651  68.3682 291.9747 15.14191194 59860
