[{"OBJECT_NAME":"LEMUR-2-ALISIA","OBJECT_ID":"2025-009DB","EPOCH":"2026-04-26T22:01:07.248000","MEAN_MOTION":15.01942463,"ECCENTRICITY":0.00031031,"INCLINATION":97.6918,"RA_OF_ASC_NODE":199.4624,"ARG_OF_PERICENTER":42.9758,"MEAN_ANOMALY":317.1709,"EPHEMERIS_TYPE":0,"CLASSIFICATION_TYPE":"U","NORAD_CAT_ID":62706,"ELEMENT_SET_NO":999,"REV_AT_EPOCH":9246,"BSTAR":0.00074593072,"MEAN_MOTION_DOT":9.708e-5,"MEAN_MOTION_DDOT":0},{"OBJECT_NAME":"LEMUR-2-ROUNDTRIPPER","OBJECT_ID":"2025-009DG","EPOCH":"2026-04-26T18:38:17.566944","MEAN_MOTION":15.02960073,"ECCENTRICITY":0.00029407,"INCLINATION":97.7239,"RA_OF_ASC_NODE":199.5657,"ARG_OF_PERICENTER":316.8959,"MEAN_ANOMALY":43.2036,"EPHEMERIS_TYPE":0,"CLASSIFICATION_TYPE":"U","NORAD_CAT_ID":62711,"ELEMENT_SET_NO":999,"REV_AT_EPOCH":6990,"BSTAR":0.00088667017,"MEAN_MOTION_DOT":0.0001187,"MEAN_MOTION_DDOT":0},{"OBJECT_NAME":"LEMUR-2-MYNAMEISJEFF","OBJECT_ID":"2025-009DH","EPOCH":"2026-04-26T18:36:04.397760","MEAN_MOTION":15.02955729,"ECCENTRICITY":0.00021231,"INCLINATION":97.7289,"RA_OF_ASC_NODE":199.9139,"ARG_OF_PERICENTER":16.1139,"MEAN_ANOMALY":344.0154,"EPHEMERIS_TYPE":0,"CLASSIFICATION_TYPE":"U","NORAD_CAT_ID":62712,"ELEMENT_SET_NO":999,"REV_AT_EPOCH":6990,"BSTAR":0.00084897521,"MEAN_MOTION_DOT":0.0001136,"MEAN_MOTION_DDOT":0},{"OBJECT_NAME":"LEMUR-2-LEIA-PHILIP","OBJECT_ID":"2025-052AN","EPOCH":"2026-04-26T14:37:55.498368","MEAN_MOTION":14.97169158,"ECCENTRICITY":0.00051467,"INCLINATION":97.6897,"RA_OF_ASC_NODE":9.42,"ARG_OF_PERICENTER":52.228,"MEAN_ANOMALY":307.9407,"EPHEMERIS_TYPE":0,"CLASSIFICATION_TYPE":"U","NORAD_CAT_ID":63246,"ELEMENT_SET_NO":999,"REV_AT_EPOCH":6095,"BSTAR":0.00022718598,"MEAN_MOTION_DOT":2.568e-5,"MEAN_MOTION_DDOT":0},{"OBJECT_NAME":"LEMUR-2-LIA-MARTIN","OBJECT_ID":"2025-052AQ","EPOCH":"2026-04-26T16:37:32.293632","MEAN_MOTION":14.97329649,"ECCENTRICITY":0.0003525,"INCLINATION":97.6942,"RA_OF_ASC_NODE":9.912,"ARG_OF_PERICENTER":23.5554,"MEAN_ANOMALY":336.5829,"EPHEMERIS_TYPE":0,"CLASSIFICATION_TYPE":"U","NORAD_CAT_ID":63248,"ELEMENT_SET_NO":999,"REV_AT_EPOCH":6097,"BSTAR":0.00052122955,"MEAN_MOTION_DOT":5.994e-5,"MEAN_MOTION_DDOT":0},{"OBJECT_NAME":"LEMUR-2-DELOITTE-1","OBJECT_ID":"2025-052BB","EPOCH":"2026-04-26T15:55:49.696896","MEAN_MOTION":14.972278,"ECCENTRICITY":8.991e-5,"INCLINATION":97.6989,"RA_OF_ASC_NODE":10.2071,"ARG_OF_PERICENTER":60.3882,"MEAN_ANOMALY":299.743,"EPHEMERIS_TYPE":0,"CLASSIFICATION_TYPE":"U","NORAD_CAT_ID":63259,"ELEMENT_SET_NO":999,"REV_AT_EPOCH":6098,"BSTAR":0.00045332881,"MEAN_MOTION_DOT":5.191e-5,"MEAN_MOTION_DDOT":0},{"OBJECT_NAME":"LEMUR-2-EMERSONROSE","OBJECT_ID":"2025-052BD","EPOCH":"2026-04-26T16:33:13.827168","MEAN_MOTION":14.98690347,"ECCENTRICITY":8.154e-5,"INCLINATION":97.6946,"RA_OF_ASC_NODE":10.6878,"ARG_OF_PERICENTER":199.8116,"MEAN_ANOMALY":160.3075,"EPHEMERIS_TYPE":0,"CLASSIFICATION_TYPE":"U","NORAD_CAT_ID":63261,"ELEMENT_SET_NO":999,"REV_AT_EPOCH":6102,"BSTAR":0.00039270354,"MEAN_MOTION_DOT":4.662e-5,"MEAN_MOTION_DDOT":0},{"OBJECT_NAME":"LEMUR-2-MARACHE-FRAN","OBJECT_ID":"2025-052BE","EPOCH":"2026-04-26T16:42:34.161408","MEAN_MOTION":14.99510242,"ECCENTRICITY":0.00028514,"INCLINATION":97.6927,"RA_OF_ASC_NODE":10.9387,"ARG_OF_PERICENTER":185.9495,"MEAN_ANOMALY":174.1695,"EPHEMERIS_TYPE":0,"CLASSIFICATION_TYPE":"U","NORAD_CAT_ID":63262,"ELEMENT_SET_NO":999,"REV_AT_EPOCH":6104,"BSTAR":0.00058427222,"MEAN_MOTION_DOT":7.119e-5,"MEAN_MOTION_DDOT":0},{"OBJECT_NAME":"LEMUR-2-THEFALCONER","OBJECT_ID":"2025-052BG","EPOCH":"2026-04-26T16:23:34.635264","MEAN_MOTION":14.97022027,"ECCENTRICITY":0.00023281,"INCLINATION":97.6915,"RA_OF_ASC_NODE":9.9014,"ARG_OF_PERICENTER":136.6284,"MEAN_ANOMALY":223.5121,"EPHEMERIS_TYPE":0,"CLASSIFICATION_TYPE":"U","NORAD_CAT_ID":63264,"ELEMENT_SET_NO":999,"REV_AT_EPOCH":6098,"BSTAR":0.00039472037,"MEAN_MOTION_DOT":4.488e-5,"MEAN_MOTION_DDOT":0},{"OBJECT_NAME":"LEMUR-2-UNTITLED-SC","OBJECT_ID":"2025-061A","EPOCH":"2026-04-26T20:14:15.398592","MEAN_MOTION":15.13098704,"ECCENTRICITY":0.00208423,"INCLINATION":97.5607,"RA_OF_ASC_NODE":92.6052,"ARG_OF_PERICENTER":82.9474,"MEAN_ANOMALY":277.4127,"EPHEMERIS_TYPE":0,"CLASSIFICATION_TYPE":"U","NORAD_CAT_ID":63351,"ELEMENT_SET_NO":999,"REV_AT_EPOCH":5982,"BSTAR":0.0002229396,"MEAN_MOTION_DOT":3.9e-5,"MEAN_MOTION_DDOT":0},{"OBJECT_NAME":"LEMUR-2-ESPERANZA","OBJECT_ID":"2025-061B","EPOCH":"2026-04-26T21:21:01.960128","MEAN_MOTION":15.13186313,"ECCENTRICITY":0.00203462,"INCLINATION":97.5612,"RA_OF_ASC_NODE":92.7328,"ARG_OF_PERICENTER":82.2369,"MEAN_ANOMALY":278.1171,"EPHEMERIS_TYPE":0,"CLASSIFICATION_TYPE":"U","NORAD_CAT_ID":63352,"ELEMENT_SET_NO":999,"REV_AT_EPOCH":5983,"BSTAR":0.0002559805,"MEAN_MOTION_DOT":4.498e-5,"MEAN_MOTION_DDOT":0},{"OBJECT_NAME":"LEMUR-2-KREMPEL-BRO2","OBJECT_ID":"2025-061C","EPOCH":"2026-04-26T22:20:52.028736","MEAN_MOTION":15.13612718,"ECCENTRICITY":0.00212777,"INCLINATION":97.5661,"RA_OF_ASC_NODE":93.2421,"ARG_OF_PERICENTER":75.3173,"MEAN_ANOMALY":285.0415,"EPHEMERIS_TYPE":0,"CLASSIFICATION_TYPE":"U","NORAD_CAT_ID":63353,"ELEMENT_SET_NO":999,"REV_AT_EPOCH":5985,"BSTAR":0.00026037523,"MEAN_MOTION_DOT":4.634e-5,"MEAN_MOTION_DDOT":0},{"OBJECT_NAME":"LEMUR-2-THERMORAPTOR","OBJECT_ID":"2025-061D","EPOCH":"2026-04-26T20:23:28.446720","MEAN_MOTION":15.13680999,"ECCENTRICITY":0.00210352,"INCLINATION":97.5667,"RA_OF_ASC_NODE":93.2273,"ARG_OF_PERICENTER":74.6965,"MEAN_ANOMALY":285.659,"EPHEMERIS_TYPE":0,"CLASSIFICATION_TYPE":"U","NORAD_CAT_ID":63354,"ELEMENT_SET_NO":999,"REV_AT_EPOCH":5984,"BSTAR":0.00024295608,"MEAN_MOTION_DOT":4.327e-5,"MEAN_MOTION_DDOT":0},{"OBJECT_NAME":"LEMUR-2-NEUROSPICY","OBJECT_ID":"2025-061E","EPOCH":"2026-04-26T21:23:24.184896","MEAN_MOTION":15.13795194,"ECCENTRICITY":0.0018825,"INCLINATION":97.5592,"RA_OF_ASC_NODE":92.9349,"ARG_OF_PERICENTER":77.9964,"MEAN_ANOMALY":282.3376,"EPHEMERIS_TYPE":0,"CLASSIFICATION_TYPE":"U","NORAD_CAT_ID":63355,"ELEMENT_SET_NO":999,"REV_AT_EPOCH":5985,"BSTAR":0.00027548573,"MEAN_MOTION_DOT":4.927e-5,"MEAN_MOTION_DDOT":0},{"OBJECT_NAME":"LEMUR-2-TILLINFINITY","OBJECT_ID":"2025-061F","EPOCH":"2026-04-26T21:07:42.354912","MEAN_MOTION":15.14379022,"ECCENTRICITY":0.00199305,"INCLINATION":97.5579,"RA_OF_ASC_NODE":93.1785,"ARG_OF_PERICENTER":67.2209,"MEAN_ANOMALY":293.1125,"EPHEMERIS_TYPE":0,"CLASSIFICATION_TYPE":"U","NORAD_CAT_ID":63356,"ELEMENT_SET_NO":999,"REV_AT_EPOCH":5987,"BSTAR":0.00029589581,"MEAN_MOTION_DOT":5.388e-5,"MEAN_MOTION_DDOT":0},{"OBJECT_NAME":"LEMUR-2-KREMPEL-BRO1","OBJECT_ID":"2025-061G","EPOCH":"2026-04-26T20:20:03.897312","MEAN_MOTION":15.14191194,"ECCENTRICITY":0.00206514,"INCLINATION":97.5579,"RA_OF_ASC_NODE":93.0758,"ARG_OF_PERICENTER":68.3682,"MEAN_ANOMALY":291.9747,"EPHEMERIS_TYPE":0,"CLASSIFICATION_TYPE":"U","NORAD_CAT_ID":63357,"ELEMENT_SET_NO":999,"REV_AT_EPOCH":5986,"BSTAR":0.00022818979,"MEAN_MOTION_DOT":4.119e-5,"MEAN_MOTION_DDOT":0}]
